{
    "links": {
        "self": "http://www.neowsapp.com/rest/v1/neo/3759007?api_key=iIulBulltgU6a56xZRHN4H3l9WmuAYTsLGpBGhQ2"
    },
    "id": "3759007",
    "neo_reference_id": "3759007",
    "name": "(2016 RQ17)",
    "designation": "2016 RQ17",
    "nasa_jpl_url": "http://ssd.jpl.nasa.gov/sbdb.cgi?sstr=3759007",
    "absolute_magnitude_h": 23.9,
    "estimated_diameter": {
        "kilometers": {
            "estimated_diameter_min": 0.04411182,
            "estimated_diameter_max": 0.0986370281
        },
        "meters": {
            "estimated_diameter_min": 44.1118199997,
            "estimated_diameter_max": 98.6370281305
        },
        "miles": {
            "estimated_diameter_min": 0.0274098057,
            "estimated_diameter_max": 0.0612901888
        },
        "feet": {
            "estimated_diameter_min": 144.7238235278,
            "estimated_diameter_max": 323.6123073718
        }
    },
    "is_potentially_hazardous_asteroid": false,
    "close_approach_data": [
        {
            "close_approach_date": "2011-09-08",
            "close_approach_date_full": "2011-Sep-08 00:52",
            "epoch_date_close_approach": 1315443120000,
            "relative_velocity": {
                "kilometers_per_second": "22.6262632454",
                "kilometers_per_hour": "81454.5476832647",
                "miles_per_hour": "50612.6882535263"
            },
            "miss_distance": {
                "astronomical": "0.0421051285",
                "lunar": "16.3788949865",
                "kilometers": "6298837.539676295",
                "miles": "3913916.156451071"
            },
            "orbiting_body": "Earth"
        },
        {
            "close_approach_date": "2016-09-08",
            "close_approach_date_full": "2016-Sep-08 08:55",
            "epoch_date_close_approach": 1473324900000,
            "relative_velocity": {
                "kilometers_per_second": "22.1542650758",
                "kilometers_per_hour": "79755.3542729261",
                "miles_per_hour": "49556.8755480857"
            },
            "miss_distance": {
                "astronomical": "0.0413609566",
                "lunar": "16.0894121174",
                "kilometers": "6187511.008522442",
                "miles": "3844741.0576840196"
            },
            "orbiting_body": "Earth"
        },
        {
            "close_approach_date": "2021-09-09",
            "close_approach_date_full": "2021-Sep-09 20:52",
            "epoch_date_close_approach": 1631220720000,
            "relative_velocity": {
                "kilometers_per_second": "21.6214396111",
                "kilometers_per_hour": "77837.1825998729",
                "miles_per_hour": "48364.9982660155"
            },
            "miss_distance": {
                "astronomical": "0.0687351424",
                "lunar": "26.7379703936",
                "kilometers": "10282630.897186688",
                "miles": "6389330.5623167744"
            },
            "orbiting_body": "Earth"
        }
    ],
    "orbital_data": {
        "orbit_id": "4",
        "orbit_determination_date": "2017-04-06 08:24:07",
        "first_observation_date": "2016-09-05",
        "last_observation_date": "2016-09-08",
        "data_arc_in_days": 3,
        "observations_used": 56,
        "orbit_uncertainty": "8",
        "minimum_orbit_intersection": ".0197767",
        "jupiter_tisserand_invariant": "5.156",
        "epoch_osculation": "2457637.5",
        "eccentricity": ".3615122381962846",
        "semi_major_axis": "1.161428612849956",
        "inclination": "39.8804910829102",
        "ascending_node_longitude": "164.1833052860387",
        "orbital_period": "457.1799843926",
        "perihelion_distance": ".7415579555133625",
        "perihelion_argument": "276.3956972002647",
        "aphelion_distance": "1.58129927018655",
        "perihelion_time": "2457708.228252311514",
        "mean_anomaly": "304.3060245387305",
        "mean_motion": ".7874360477051257",
        "equinox": "J2000",
        "orbit_class": {
            "orbit_class_type": "APO",
            "orbit_class_description": "Near-Earth asteroid orbits which cross the Earth’s orbit similar to that of 1862 Apollo",
            "orbit_class_range": "a (semi-major axis) > 1.0 AU; q (perihelion) < 1.017 AU"
        }
    },
    "is_sentry_object": false
}